NORAD_CAT_ID,OBJECT_NAME,OBJECT_TYPE,EPOCH,MEAN_MOTION,ECCENTRICITY,INCLINATION,RA_OF_ASC_NODE,ARG_OF_PERICENTER,MEAN_ANOMALY,BSTAR,MEAN_MOTION_DOT,MEAN_MOTION_DDOT,TLE_LINE0,TLE_LINE1,TLE_LINE2,SEMIMAJOR_AXIS,PERIOD,APOGEE,PERIGEE,DECAYED
53256.0,STARLINK-4147,PAYLOAD,2024-01-04 17:56:51,15.08842668,0.000124,53.217,162.7507,94.0639,266.0495,9.1065e-05,1.162e-05,0.0,0 STARLINK-4147,1 53256U 22086Q   24004.74781817  .00001162  00000-0  91065-4 0  9997,2 53256  53.2170 162.7507 0001240  94.0639 266.0495 15.08842668 80870,6917.872,95.437,540.595,538.879,0.0
53256.0,STARLINK-4147,PAYLOAD,2024-01-05 14:36:51,15.08835446,0.0001121,53.2166,158.8864,99.8287,260.2832,0.00047867,7.337e-05,0.0,0 STARLINK-4147,1 53256U 22086Q   24005.60892905  .00007337  00000-0  47867-3 0  9994,2 53256  53.2166 158.8864 0001121  99.8287 260.2832 15.08835446 81189,6917.894,95.438,540.535,538.984,0.0
53256.0,STARLINK-4147,PAYLOAD,2024-01-05 16:12:14,15.08837399,0.0001133,53.2167,158.5892,95.8252,264.287,0.00048536,7.445e-05,0.0,0 STARLINK-4147,1 53256U 22086Q   24005.67516895  .00007445  00000-0  48536-3 0  9996,2 53256  53.2167 158.5892 0001133  95.8252 264.2870 15.08837399 81195,6917.888,95.438,540.537,538.97,0.0
53256.0,STARLINK-4147,PAYLOAD,2024-01-06 09:41:29,15.08854008,0.0001223,53.2168,155.3171,110.2621,249.8502,3.1761e-05,2.18e-06,0.0,0 STARLINK-4147,1 53256U 22086Q   24006.40381380  .00000218  00000-0  31761-4 0  9991,2 53256  53.2168 155.3171 0001223 110.2621 249.8502 15.08854008 81123,6917.838,95.437,540.549,538.857,0.0
53256.0,STARLINK-4147,PAYLOAD,2024-01-06 19:13:48,15.08853072,0.0001197,53.2168,153.5323,118.1757,241.9356,2.1779e-05,5.9e-07,0.0,0 STARLINK-4147,1 53256U 22086Q   24006.80125098  .00000059  00000-0  21779-4 0  9998,2 53256  53.2168 153.5323 0001197 118.1757 241.9356 15.08853072 81365,6917.84,95.437,540.533,538.877,0.0
53256.0,STARLINK-4147,PAYLOAD,2024-01-07 09:32:16,15.08852403,0.000129,53.2168,150.8548,120.4583,239.6537,-0.00013723,-2.472e-05,0.0,0 STARLINK-4147,1 53256U 22086Q   24007.39741198 -.00002472  00000-0 -13723-3 0  9990,2 53256  53.2168 150.8548 0001290 120.4583 239.6537 15.08852403 81273,6917.842,95.437,540.6,538.815,0.0
53256.0,STARLINK-4147,PAYLOAD,2024-01-07 14:18:25,15.08854745,0.0001194,53.2169,149.9639,109.8268,250.2853,-8.2967e-05,-1.609e-05,0.0,0 STARLINK-4147,1 53256U 22086Q   24007.59612747 -.00001609  00000-0 -82967-4 0  9997,2 53256  53.2169 149.9639 0001194 109.8268 250.2853 15.08854745 81482,6917.835,95.437,540.526,538.874,0.0
53256.0,STARLINK-4147,PAYLOAD,2024-01-07 15:53:48,15.08854954,0.0001186,53.217,149.6667,106.8374,253.2748,-8.9131e-05,-1.707e-05,0.0,0 STARLINK-4147,1 53256U 22086Q   24007.66236698 -.00001707  00000-0 -89131-4 0  9991,2 53256  53.2170 149.6667 0001186 106.8374 253.2748 15.08854954 81497,6917.835,95.437,540.52,538.879,0.0
53256.0,STARLINK-4147,PAYLOAD,2024-01-08 14:09:12,15.08843746,0.0001182,53.2168,145.5043,93.441,266.6717,4.5812e-05,4.41e-06,0.0,0 STARLINK-4147,1 53256U 22086Q   24008.58972711  .00000441  00000-0  45812-4 0  9996,2 53256  53.2168 145.5043 0001182  93.4410 266.6717 15.08843746 81632,6917.869,95.437,540.552,538.916,0.0
53256.0,STARLINK-4147,PAYLOAD,2024-01-08 15:44:35,15.08844509,0.0001187,53.2169,145.2069,92.8278,267.285,5.0521e-05,5.16e-06,0.0,0 STARLINK-4147,1 53256U 22086Q   24008.65596633  .00000516  00000-0  50521-4 0  9995,2 53256  53.2169 145.2069 0001187  92.8278 267.2850 15.08844509 81462,6917.867,95.437,540.553,538.91,0.0
53256.0,STARLINK-4147,PAYLOAD,2024-01-09 13:59:59,15.08842913,0.0001207,53.217,141.0429,105.2562,254.8563,3.5472e-05,2.77e-06,0.0,0 STARLINK-4147,1 53256U 22086Q   24009.58332733  .00000277  00000-0  35472-4 0  9999,2 53256  53.2170 141.0429 0001207 105.2562 254.8563 15.08842913 81781,6917.871,95.437,540.571,538.901,0.0
53256.0,STARLINK-4147,PAYLOAD,2024-01-09 15:35:22,15.08849255,0.0001396,53.2174,140.7484,69.5054,290.6088,0.00011994,1.622e-05,0.0,0 STARLINK-4147,1 53256U 22086Q   24009.64956214  .00001622  00000-0  11994-3 0  9999,2 53256  53.2174 140.7484 0001396  69.5054 290.6088 15.08849255 81617,6917.852,95.437,540.683,538.751,0.0
53256.0,STARLINK-4147,PAYLOAD,2024-01-10 09:04:37,15.08837808,0.0001176,53.2169,137.4756,84.8749,275.2378,9.8428e-06,-1.31e-06,0.0,0 STARLINK-4147,1 53256U 22086Q   24010.37821216 -.00000131  00000-0  98428-5 0  9998,2 53256  53.2169 137.4756 0001176  84.8749 275.2378 15.08837808 81727,6917.887,95.438,540.566,538.939,0.0
53256.0,STARLINK-4147,PAYLOAD,2024-01-11 12:06:10,15.08842144,0.000123,53.2167,132.4206,97.693,262.4201,4.6668e-05,4.55e-06,0.0,0 STARLINK-4147,1 53256U 22086Q   24011.50429019  .00000455  00000-0  46668-4 0  9995,2 53256  53.2167 132.4206 0001230  97.6930 262.4201 15.08842144 81895,6917.874,95.437,540.59,538.888,0.0
53256.0,STARLINK-4147,PAYLOAD,2024-01-11 13:41:33,15.08843813,0.0001394,53.2178,132.1235,97.3643,262.7508,7.7014e-05,9.38e-06,0.0,0 STARLINK-4147,1 53256U 22086Q   24011.57052904  .00000938  00000-0  77014-4 0  9992,2 53256  53.2178 132.1235 0001394  97.3643 262.7508 15.08843813 82084,6917.869,95.437,540.698,538.769,0.0
53256.0,STARLINK-4147,PAYLOAD,2024-01-11 15:16:56,15.08849913,0.000118,53.2169,131.8258,80.0536,280.0589,0.00010991,1.462e-05,0.0,0 STARLINK-4147,1 53256U 22086Q   24011.63676466  .00001462  00000-0  10991-3 0  9997,2 53256  53.2169 131.8258 0001180  80.0536 280.0589 15.08849913 81918,6917.85,95.437,540.531,538.899,0.0
53256.0,STARLINK-4147,PAYLOAD,2024-01-12 11:56:58,15.08836077,0.0001222,53.2185,127.961,90.9561,269.1571,2.245e-05,6.9e-07,0.0,0 STARLINK-4147,1 53256U 22086Q   24012.49789724  .00000069  00000-0  22450-4 0  9990,2 53256  53.2185 127.9610 0001222  90.9561 269.1571 15.08836077 82040,6917.892,95.438,540.603,538.912,0.0
53256.0,STARLINK-4147,PAYLOAD,2024-01-12 13:32:21,15.08829703,0.0001938,53.2185,127.6668,31.4219,328.6889,8.4207e-05,1.052e-05,0.0,0 STARLINK-4147,1 53256U 22086Q   24012.56414160  .00001052  00000-0  84207-4 0  9998,2 53256  53.2185 127.6668 0001938  31.4219 328.6889 15.08829703 82236,6917.912,95.438,541.118,538.436,0.0
53256.0,STARLINK-4147,PAYLOAD,2024-01-12 15:07:44,15.08839079,0.0001602,53.2188,127.3676,51.7391,308.3745,6.2878e-05,7.13e-06,0.0,0 STARLINK-4147,1 53256U 22086Q   24012.63037653  .00000713  00000-0  62878-4 0  9997,2 53256  53.2188 127.3676 0001602  51.7391 308.3745 15.08839079 82243,6917.883,95.438,540.856,538.64,0.0
53256.0,STARLINK-4147,PAYLOAD,2024-01-13 13:23:08,15.08844751,0.0001712,53.2189,123.2083,68.4147,291.7027,3.0219e-05,1.93e-06,0.0,0 STARLINK-4147,1 53256U 22086Q   24013.55773652  .00000193  00000-0  30219-4 0  9991,2 53256  53.2189 123.2083 0001712  68.4147 291.7027 15.08844751 82383,6917.866,95.437,540.915,538.547,0.0
53256.0,STARLINK-4147,PAYLOAD,2024-01-13 14:58:31,15.08848121,0.0001868,53.2182,122.9102,61.0879,299.03,4.0159e-05,3.51e-06,0.0,0 STARLINK-4147,1 53256U 22086Q   24013.62397411  .00000351  00000-0  40159-4 0  9994,2 53256  53.2182 122.9102 0001868  61.0879 299.0300 15.08848121 82219,6917.856,95.437,541.013,538.428,0.0
53256.0,STARLINK-4147,PAYLOAD,2024-01-14 11:38:32,15.08837737,0.000179,53.2187,119.0448,57.039,303.0774,0.00012173,1.65e-05,0.0,0 STARLINK-4147,1 53256U 22086Q   24014.48509809  .00001650  00000-0  12173-3 0  9992,2 53256  53.2187 119.0448 0001790  57.0390 303.0774 15.08837737 82347,6917.887,95.438,540.991,538.514,0.0
53256.0,STARLINK-4147,PAYLOAD,2024-01-14 13:13:55,15.0884146,0.000176,53.2182,118.7462,62.3874,297.7297,0.00013389,1.844e-05,0.0,0 STARLINK-4147,1 53256U 22086Q   24014.55133576  .00001844  00000-0  13389-3 0  9999,2 53256  53.2182 118.7462 0001760  62.3874 297.7297 15.08841460 82535,6917.876,95.437,540.958,538.523,0.0
53256.0,STARLINK-4147,PAYLOAD,2024-01-14 16:24:40,15.0885314,0.0001346,53.2179,118.147,86.6522,273.4624,0.00016595,2.355e-05,0.0,0 STARLINK-4147,1 53256U 22086Q   24014.68380546  .00002355  00000-0  16595-3 0  9994,2 53256  53.2179 118.1470 0001346  86.6522 273.4624 15.08853140 82378,6917.84,95.437,540.636,538.774,0.0
53256.0,STARLINK-4147,PAYLOAD,2024-01-15 11:29:19,15.0884283,0.0001791,53.2188,114.5839,77.4883,282.6309,4.1286e-05,3.69e-06,0.0,0 STARLINK-4147,1 53256U 22086Q   24015.47869651  .00000369  00000-0  41286-4 0  9990,2 53256  53.2188 114.5839 0001791  77.4883 282.6309 15.08842830 82498,6917.872,95.437,540.976,538.498,0.0
53256.0,STARLINK-4147,PAYLOAD,2024-01-15 13:04:42,15.08847016,0.0001749,53.2186,114.2841,89.7445,270.3748,3.1052e-05,2.06e-06,0.0,0 STARLINK-4147,1 53256U 22086Q   24015.54493273  .00000206  00000-0  31052-4 0  9991,2 53256  53.2186 114.2841 0001749  89.7445 270.3748 15.08847016 82682,6917.859,95.437,540.934,538.514,0.0
53256.0,STARLINK-4147,PAYLOAD,2024-01-16 12:55:29,15.08841701,0.0001589,53.2184,109.8194,100.5805,259.5366,-4.1315e-05,-9.46e-06,0.0,0 STARLINK-4147,1 53256U 22086Q   24016.53853860 -.00000946  00000-0 -41315-4 0  9999,2 53256  53.2184 109.8194 0001589 100.5805 259.5366 15.08841701 82832,6917.875,95.437,540.839,538.641,0.0
53256.0,STARLINK-4147,PAYLOAD,2024-01-16 14:30:52,15.08842485,0.000162,53.2186,109.5218,105.2509,254.8662,-3.2938e-05,-8.12e-06,0.0,0 STARLINK-4147,1 53256U 22086Q   24016.60477766 -.00000812  00000-0 -32938-4 0  9997,2 53256  53.2186 109.5218 0001620 105.2509 254.8662 15.08842485 82665,6917.873,95.437,540.858,538.617,0.0
53256.0,STARLINK-4147,PAYLOAD,2024-01-17 11:10:54,15.08836694,0.0001749,53.2183,105.6564,111.3554,248.7625,-7.6782e-06,-4.1e-06,0.0,0 STARLINK-4147,1 53256U 22086Q   24017.46590466 -.00000410  00000-0 -76782-5 0  9995,2 53256  53.2183 105.6564 0001749 111.3554 248.7625 15.08836694 82793,6917.89,95.438,540.965,538.546,0.0
53256.0,STARLINK-4147,PAYLOAD,2024-01-17 12:46:17,15.08838262,0.0001778,53.2186,105.3591,111.1952,248.9231,8.4703e-06,-1.53e-06,0.0,0 STARLINK-4147,1 53256U 22086Q   24017.53214364 -.00000153  00000-0  84703-5 0  9998,2 53256  53.2186 105.3591 0001778 111.1952 248.9231 15.08838262 82984,6917.886,95.438,540.981,538.521,0.0
